[Satellite]
VERSION=1.1
NAME=RADUGA 7 [-]
NICKNAME=RADUGA 7 [-]
TLE1=1 12003U 80081A   17185.63787413  .00000088  00000-0  00000-0 0  9990
TLE2=2 12003  12.9107 325.3504 0012607 234.9587 167.6786  1.00358020 90632
